[
    {
        "Altitude(m)": 571224.0109009962,
        "Argument of Periapsis(deg)": 0.0,
        "Eccentricity": 0.0,
        "Inclination(deg)": 97.0,
        "Latitude(deg)": 49.25724199377192,
        "Longitude(deg)": 88.18015803104697,
        "Mean Anomaly(deg)": 130.3448,
        "RAAN(deg)": 0.0,
        "Satellite Name": "Starlink Shell 3 1605",
        "Satellite Number": 1605,
        "Semi-Major Axis(m)": 6938478.169268562,
        "Time(s)": 0
    },
    {
        "Altitude(m)": 571083.2354724042,
        "Argument of Periapsis(deg)": -0.0003965466804030246,
        "Eccentricity": 0.0,
        "Inclination(deg)": 97.0,
        "Latitude(deg)": 48.642495086021306,
        "Longitude(deg)": 87.9626747433114,
        "Mean Anomaly(deg)": 130.97027619770503,
        "RAAN(deg)": 0.00010433427400896087,
        "Satellite Name": "Starlink Shell 3 1605",
        "Satellite Number": 1605,
        "Semi-Major Axis(m)": 6938478.169268562,
        "Time(s)": 10
    },
    {
        "Altitude(m)": 570942.5178873462,
        "Argument of Periapsis(deg)": -0.0007930933608060492,
        "Eccentricity": 0.0,
        "Inclination(deg)": 97.0,
        "Latitude(deg)": 48.027412741193764,
        "Longitude(deg)": 87.74940599513148,
        "Mean Anomaly(deg)": 131.5957523954101,
        "RAAN(deg)": 0.00020866854801792175,
        "Satellite Name": "Starlink Shell 3 1605",
        "Satellite Number": 1605,
        "Semi-Major Axis(m)": 6938478.169268562,
        "Time(s)": 20
    },
    {
        "Altitude(m)": 570801.9443997269,
        "Argument of Periapsis(deg)": -0.001189640041209074,
        "Eccentricity": 0.0,
        "Inclination(deg)": 97.0,
        "Latitude(deg)": 47.41200640443092,
        "Longitude(deg)": 87.54016532608229,
        "Mean Anomaly(deg)": 132.22122859311514,
        "RAAN(deg)": 0.0003130028220268826,
        "Satellite Name": "Starlink Shell 3 1605",
        "Satellite Number": 1605,
        "Semi-Major Axis(m)": 6938478.169268562,
        "Time(s)": 30
    },
    {
        "Altitude(m)": 570661.6014583723,
        "Argument of Periapsis(deg)": -0.0015861867216120985,
        "Eccentricity": 0.0,
        "Inclination(deg)": 97.0,
        "Latitude(deg)": 46.796286915008686,
        "Longitude(deg)": 87.3347770291941,
        "Mean Anomaly(deg)": 132.84670479082018,
        "RAAN(deg)": 0.0004173370960358435,
        "Satellite Name": "Starlink Shell 3 1605",
        "Satellite Number": 1605,
        "Semi-Major Axis(m)": 6938478.169268562,
        "Time(s)": 40
    },
    {
        "Altitude(m)": 570521.575663549,
        "Argument of Periapsis(deg)": -0.0019827334020151234,
        "Eccentricity": 0.0,
        "Inclination(deg)": 97.0,
        "Latitude(deg)": 46.18026455118852,
        "Longitude(deg)": 87.1330744421963,
        "Mean Anomaly(deg)": 133.47218098852522,
        "RAAN(deg)": 0.0005216713700448044,
        "Satellite Name": "Starlink Shell 3 1605",
        "Satellite Number": 1605,
        "Semi-Major Axis(m)": 6938478.169268562,
        "Time(s)": 50
    },
    {
        "Altitude(m)": 570381.9537233639,
        "Argument of Periapsis(deg)": -0.002379280082418148,
        "Eccentricity": 0.0,
        "Inclination(deg)": 97.0,
        "Latitude(deg)": 45.56394907142419,
        "Longitude(deg)": 86.93489980745282,
        "Mean Anomaly(deg)": 134.09765718623026,
        "RAAN(deg)": 0.0006260056440537652,
        "Satellite Name": "Starlink Shell 3 1605",
        "Satellite Number": 1605,
        "Semi-Major Axis(m)": 6938478.169268562,
        "Time(s)": 60
    },
    {
        "Altitude(m)": 570242.8224100297,
        "Argument of Periapsis(deg)": -0.002775826762821173,
        "Eccentricity": 0.0,
        "Inclination(deg)": 97.0,
        "Latitude(deg)": 44.94734975225894,
        "Longitude(deg)": 86.74010418263148,
        "Mean Anomaly(deg)": 134.7231333839353,
        "RAAN(deg)": 0.0007303399180627261,
        "Satellite Name": "Starlink Shell 3 1605",
        "Satellite Number": 1605,
        "Semi-Major Axis(m)": 6938478.169268562,
        "Time(s)": 70
    },
    {
        "Altitude(m)": 570104.2685159892,
        "Argument of Periapsis(deg)": -0.003172373443224197,
        "Eccentricity": 0.0,
        "Inclination(deg)": 97.0,
        "Latitude(deg)": 44.33047542321527,
        "Longitude(deg)": 86.54854588466647,
        "Mean Anomaly(deg)": 135.34860958164035,
        "RAAN(deg)": 0.000834674192071687,
        "Satellite Name": "Starlink Shell 3 1605",
        "Satellite Number": 1605,
        "Semi-Major Axis(m)": 6938478.169268562,
        "Time(s)": 80
    },
    {
        "Altitude(m)": 569966.3788099709,
        "Argument of Periapsis(deg)": -0.0035689201236272223,
        "Eccentricity": 0.0,
        "Inclination(deg)": 97.0,
        "Latitude(deg)": 43.71333449894831,
        "Longitude(deg)": 86.36009048865981,
        "Mean Anomaly(deg)": 135.9740857793454,
        "RAAN(deg)": 0.0009390084660806479,
        "Satellite Name": "Starlink Shell 3 1605",
        "Satellite Number": 1605,
        "Semi-Major Axis(m)": 6938478.169268562,
        "Time(s)": 90
    },
    {
        "Altitude(m)": 569829.2399929644,
        "Argument of Periapsis(deg)": -0.003965466804030247,
        "Eccentricity": 0.0,
        "Inclination(deg)": 97.0,
        "Latitude(deg)": 43.09593500890579,
        "Longitude(deg)": 86.17461086514784,
        "Mean Anomaly(deg)": 136.59956197705043,
        "RAAN(deg)": 0.0010433427400896088,
        "Satellite Name": "Starlink Shell 3 1605",
        "Satellite Number": 1605,
        "Semi-Major Axis(m)": 6938478.169268562,
        "Time(s)": 100
    },
    {
        "Altitude(m)": 569692.9386541125,
        "Argument of Periapsis(deg)": -0.004362013484433271,
        "Eccentricity": 0.0,
        "Inclination(deg)": 97.0,
        "Latitude(deg)": 42.47828462471241,
        "Longitude(deg)": 85.99198573952013,
        "Mean Anomaly(deg)": 137.2250381747555,
        "RAAN(deg)": 0.0011476770140985695,
        "Satellite Name": "Starlink Shell 3 1605",
        "Satellite Number": 1605,
        "Semi-Major Axis(m)": 6938478.169268562,
        "Time(s)": 110
    },
    {
        "Altitude(m)": 569557.5612266369,
        "Argument of Periapsis(deg)": -0.004758560164836296,
        "Eccentricity": 0.0,
        "Inclination(deg)": 97.0,
        "Latitude(deg)": 41.860390685477675,
        "Longitude(deg)": 85.81209979633344,
        "Mean Anomaly(deg)": 137.85051437246054,
        "RAAN(deg)": 0.0012520112881075304,
        "Satellite Name": "Starlink Shell 3 1605",
        "Satellite Number": 1605,
        "Semi-Major Axis(m)": 6938478.169268562,
        "Time(s)": 120
    },
    {
        "Altitude(m)": 569423.1939436931,
        "Argument of Periapsis(deg)": -0.005155106845239321,
        "Eccentricity": 0.0,
        "Inclination(deg)": 97.0,
        "Latitude(deg)": 41.24226022120333,
        "Longitude(deg)": 85.6348438129212,
        "Mean Anomaly(deg)": 138.47599057016558,
        "RAAN(deg)": 0.0013563455621164913,
        "Satellite Name": "Starlink Shell 3 1605",
        "Satellite Number": 1605,
        "Semi-Major Axis(m)": 6938478.169268562,
        "Time(s)": 130
    },
    {
        "Altitude(m)": 569289.9227942738,
        "Argument of Periapsis(deg)": -0.005551653525642346,
        "Eccentricity": 0.0,
        "Inclination(deg)": 97.0,
        "Latitude(deg)": 40.623899974451184,
        "Longitude(deg)": 85.46011330696093,
        "Mean Anomaly(deg)": 139.10146676787062,
        "RAAN(deg)": 0.0014606798361254522,
        "Satellite Name": "Starlink Shell 3 1605",
        "Satellite Number": 1605,
        "Semi-Major Axis(m)": 6938478.169268562,
        "Time(s)": 140
    },
    {
        "Altitude(m)": 569157.8334791311,
        "Argument of Periapsis(deg)": -0.005948200206045371,
        "Eccentricity": 0.0,
        "Inclination(deg)": 97.0,
        "Latitude(deg)": 40.005316420417216,
        "Longitude(deg)": 85.28780872151897,
        "Mean Anomaly(deg)": 139.72694296557566,
        "RAAN(deg)": 0.0015650141101344129,
        "Satellite Name": "Starlink Shell 3 1605",
        "Satellite Number": 1605,
        "Semi-Major Axis(m)": 6938478.169268562,
        "Time(s)": 150
    },
    {
        "Altitude(m)": 569027.0113667732,
        "Argument of Periapsis(deg)": -0.006344746886448394,
        "Eccentricity": 0.0,
        "Inclination(deg)": 97.0,
        "Latitude(deg)": 39.386515785542805,
        "Longitude(deg)": 85.11783563267264,
        "Mean Anomaly(deg)": 140.35241916328073,
        "RAAN(deg)": 0.001669348384143374,
        "Satellite Name": "Starlink Shell 3 1605",
        "Satellite Number": 1605,
        "Semi-Major Axis(m)": 6938478.169268562,
        "Time(s)": 160
    },
    {
        "Altitude(m)": 568897.5414495319,
        "Argument of Periapsis(deg)": -0.00674129356685142,
        "Eccentricity": 0.0,
        "Inclination(deg)": 97.0,
        "Latitude(deg)": 38.76750406478219,
        "Longitude(deg)": 84.95010346499728,
        "Mean Anomaly(deg)": 140.97789536098577,
        "RAAN(deg)": 0.001773682658152335,
        "Satellite Name": "Starlink Shell 3 1605",
        "Satellite Number": 1605,
        "Semi-Major Axis(m)": 6938478.169268562,
        "Time(s)": 170
    },
    {
        "Altitude(m)": 568769.5082997195,
        "Argument of Periapsis(deg)": -0.007137840247254445,
        "Eccentricity": 0.0,
        "Inclination(deg)": 97.0,
        "Latitude(deg)": 38.14828703763459,
        "Longitude(deg)": 84.78452573899817,
        "Mean Anomaly(deg)": 141.60337155869078,
        "RAAN(deg)": 0.0018780169321612958,
        "Satellite Name": "Starlink Shell 3 1605",
        "Satellite Number": 1605,
        "Semi-Major Axis(m)": 6938478.169268562,
        "Time(s)": 180
    }
]